{"type":"FeatureCollection","features":[{"type":"Feature","geometry":{"type":"Point","coordinates":[-2.6684892,51.541489]},"properties":{"Name":"WW Truck & Bus Ltd","Postcode":"BS107GD","Description":"BS107GD","Grid Reference":"ST 53736 82722","X (easting)":353736,"Y (northing)":182722,"Latitude":51.541489,"Longitude":-2.6684892,"Franchise":"VOLVO"}},{"type":"Feature","geometry":{"type":"Point","coordinates":[-0.75038101,52.018698]},"properties":{"Name":"Brian Currie","Postcode":"MK61LH","Description":"MK61LH","Grid Reference":"SP 85849 36323","X (easting)":485849,"Y (northing)":236323,"Latitude":52.018698,"Longitude":-0.75038101,"Franchise":"DAF"}},{"type":"Feature","geometry":{"type":"Point","coordinates":[-1.2436444,54.599974]},"properties":{"Name":"North East Truck & Van Ltd","Postcode":"TS234EX","Description":"TS234EX","Grid Reference":"NZ 48962 23018","X (easting)":448962,"Y (northing)":523018,"Latitude":54.599974,"Longitude":-1.2436444,"Franchise":"DAF"}},{"type":"Feature","geometry":{"type":"Point","coordinates":[1.0844763,52.115429]},"properties":{"Name":"TruckEast Ltd","Postcode":"IP309RZ","Description":"IP309RZ","Grid Reference":"TM 11284 50833","X (easting)":611284,"Y (northing)":250833,"Latitude":52.115429,"Longitude":1.0844763,"Franchise":"SCANIA"}},{"type":"Feature","geometry":{"type":"Point","coordinates":[-1.4098602,52.533601]},"properties":{"Name":"Paynes Garages Ltd","Postcode":"LE103ED","Description":"LE103ED","Grid Reference":"SP 40128 93023","X (easting)":440128,"Y (northing)":293023,"Latitude":52.533601,"Longitude":-1.4098602,"Franchise":"IZUSU/FORD"}},{"type":"Feature","geometry":{"type":"Point","coordinates":[0,0]},"properties":{"Name":"Purfleet Commercials Ltd","Postcode":"RM203BE","Description":"postcode not found","Grid Reference":"","X (easting)":"","Y (northing)":"","Latitude":0,"Longitude":0,"Franchise":"IVECO/MAN"}},{"type":"Feature","geometry":{"type":"Point","coordinates":[-1.7905428,52.710869]},"properties":{"Name":"Allports Garages Limited","Postcode":"WS138NG","Description":"WS138NG","Grid Reference":"SK 14248 12599","X (easting)":414248,"Y (northing)":312599,"Latitude":52.710869,"Longitude":-1.7905428,"Franchise":"RENAULT"}},{"type":"Feature","geometry":{"type":"Point","coordinates":[0.8553629,51.149477]},"properties":{"Name":"Channel Commercials Plc","Postcode":"TN231EH","Description":"TN231EH","Grid Reference":"TQ 99800 42789","X (easting)":599800,"Y (northing)":142789,"Latitude":51.149477,"Longitude":0.8553629,"Franchise":"DAF"}},{"type":"Feature","geometry":{"type":"Point","coordinates":[0.4929754,51.302997]},"properties":{"Name":"MC Truck & Bus Ltd","Postcode":"ME207BT","Description":"ME207BT","Grid Reference":"TQ 73879 58937","X (easting)":573879,"Y (northing)":158937,"Latitude":51.302997,"Longitude":0.4929754,"Franchise":"VOLVO"}},{"type":"Feature","geometry":{"type":"Point","coordinates":[0.28870986,51.475683]},"properties":{"Name":"Harris Commercial Repairs Ltd","Postcode":"RM204AU","Description":"RM204AU","Grid Reference":"TQ 59042 77675","X (easting)":559042,"Y (northing)":177675,"Latitude":51.475683,"Longitude":0.28870986,"Franchise":"IVECO "}},{"type":"Feature","geometry":{"type":"Point","coordinates":[1.0933636,52.105168]},"properties":{"Name":"Chassis Cab Ltd","Postcode":"IP60RL","Description":"IP60RL","Grid Reference":"TM 11941 49718","X (easting)":611941,"Y (northing)":249718,"Latitude":52.105168,"Longitude":1.0933636,"Franchise":"DAF"}},{"type":"Feature","geometry":{"type":"Point","coordinates":[-1.9826156,52.506571]},"properties":{"Name":"Guest Motor Group","Postcode":"B706BY","Description":"B706BY","Grid Reference":"SP 01277 89853","X (easting)":401277,"Y (northing)":289853,"Latitude":52.506571,"Longitude":-1.9826156,"Franchise":"IVECO"}},{"type":"Feature","geometry":{"type":"Point","coordinates":[-3.9167967,51.661107]},"properties":{"Name":"WG Davies Ltd","Postcode":"SA68QL","Description":"SA68QL","Grid Reference":"SS 67518 97554","X (easting)":267518,"Y (northing)":197554,"Latitude":51.661107,"Longitude":-3.9167967,"Franchise":"MAN"}},{"type":"Feature","geometry":{"type":"Point","coordinates":[-2.6652477,50.935105]},"properties":{"Name":"SMV Commercials Ltd-","Postcode":"BA202HP","Description":"BA202HP","Grid Reference":"ST 53350 15284","X (easting)":353350,"Y (northing)":115284,"Latitude":50.935105,"Longitude":-2.6652477,"Franchise":"VW/MAN"}},{"type":"Feature","geometry":{"type":"Point","coordinates":[-2.6934992,51.514423]},"properties":{"Name":"City West Commercials Ltd","Postcode":"BS119BY","Description":"BS119BY","Grid Reference":"ST 51973 79728","X (easting)":351973,"Y (northing)":179728,"Latitude":51.514423,"Longitude":-2.6934992,"Franchise":"MERCEDES"}},{"type":"Feature","geometry":{"type":"Point","coordinates":[-1.9758075,52.509375]},"properties":{"Name":"Keltruck Ltd","Postcode":"B714JW","Description":"B714JW","Grid Reference":"SP 01739 90165","X (easting)":401739,"Y (northing)":290165,"Latitude":52.509375,"Longitude":-1.9758075,"Franchise":"SCANIA"}},{"type":"Feature","geometry":{"type":"Point","coordinates":[-0.70465387,51.611257]},"properties":{"Name":"Motus Group (UK) Ltd","Postcode":"HP111JU","Description":"HP111JU","Grid Reference":"SU 89792 91064","X (easting)":489792,"Y (northing)":191064,"Latitude":51.611257,"Longitude":-0.70465387,"Franchise":"DAF/MERCEDES"}},{"type":"Feature","geometry":{"type":"Point","coordinates":[-2.5269095,53.403541]},"properties":{"Name":"Warrington Vehicle Centre Ltd","Postcode":"WA14RF","Description":"WA14RF","Grid Reference":"SJ 65066 89765","X (easting)":365066,"Y (northing)":389765,"Latitude":53.403541,"Longitude":-2.5269095,"Franchise":"IVECO"}},{"type":"Feature","geometry":{"type":"Point","coordinates":[-1.7886639,53.788722]},"properties":{"Name":"Northside Truck & Van Ltd","Postcode":"BD72HR","Description":"BD72HR","Grid Reference":"SE 14021 32510","X (easting)":414021,"Y (northing)":432510,"Latitude":53.788722,"Longitude":-1.7886639,"Franchise":"MERCEDES"}},{"type":"Feature","geometry":{"type":"Point","coordinates":[-0.44210524,51.453321]},"properties":{"Name":"Rygor Group Ltd","Postcode":"TW148NW","Description":"TW148NW","Grid Reference":"TQ 08345 73855","X (easting)":508345,"Y (northing)":173855,"Latitude":51.453321,"Longitude":-0.44210524,"Franchise":"MERCEDES"}},{"type":"Feature","geometry":{"type":"Point","coordinates":[0.18555614,51.451887]},"properties":{"Name":"Acorn Truck Sales Ltd","Postcode":"DA14AL","Description":"DA14AL","Grid Reference":"TQ 51958 74810","X (easting)":551958,"Y (northing)":174810,"Latitude":51.451887,"Longitude":0.18555614,"Franchise":"IVECO"}},{"type":"Feature","geometry":{"type":"Point","coordinates":[-4.0893522,50.392875]},"properties":{"Name":"Vospers","Postcode":"PL68AY","Description":"PL68AY","Grid Reference":"SX 51584 56864","X (easting)":251584,"Y (northing)":56864,"Latitude":50.392875,"Longitude":-4.0893522,"Franchise":"FORD/FIAT/PEUGOT/VAUXHALL"}},{"type":"Feature","geometry":{"type":"Point","coordinates":[0,0]},"properties":{"Name":"","Postcode":"Batch Convert Tool | Irish Grid Reference Finder | Contact Us","Description":"","Grid Reference":"","X (easting)":"","Y (northing)":"","Latitude":0,"Longitude":0,"Franchise":""}},{"type":"Feature","geometry":{"type":"Point","coordinates":[0,0]},"properties":{"Name":"","Postcode":"UK Grid Reference Finder | Copyright 2014, All Rights Reserved. | Disclaimer and Cookie Policy | Mapping Resources","Description":"","Grid Reference":"","X (easting)":"","Y (northing)":"","Latitude":0,"Longitude":0,"Franchise":""}},{"type":"Feature","geometry":{"type":"Point","coordinates":[0,0]},"properties":{"Name":"","Postcode":"Privacy and cookie settings","Description":"","Grid Reference":"","X (easting)":"","Y (northing)":"","Latitude":0,"Longitude":0,"Franchise":""}}]}